{
  "norad_id": 59880,
  "name": "STARLINK-31919",
  "history": [
    {
      "epoch": "2026-03-28T15:19:08.980032Z",
      "apogee_km": 483.9457278183445,
      "perigee_km": 482.1294376827982,
      "latitude_deg": 4.85152109763902e-06,
      "longitude_deg": 115.17731695747534,
      "height_km": 482.71053509657224,
      "semi_major_axis_km": 6861.174582750571,
      "eccentricity": 0.00013236,
      "inclination_deg": 43.0019,
      "raan_deg": 171.0206,
      "arg_perigee_deg": 276.5698,
      "mean_anomaly_deg": 83.5003,
      "mean_motion_rev_day": 15.27583845
    },
    {
      "epoch": "2026-03-29T05:26:33.423936Z",
      "apogee_km": 484.0803667122336,
      "perigee_km": 482.02475431990297,
      "latitude_deg": -1.964080748727576e-05,
      "longitude_deg": -100.58198854186756,
      "height_km": 483.2255586804726,
      "semi_major_axis_km": 6861.189560516068,
      "eccentricity": 0.0001498,
      "inclination_deg": 42.9993,
      "raan_deg": 167.6932,
      "arg_perigee_deg": 247.3117,
      "mean_anomaly_deg": 112.7576,
      "mean_motion_rev_day": 15.27578843
    },
    {
      "epoch": "2026-03-30T04:58:54.806592Z",
      "apogee_km": 484.0124249226292,
      "perigee_km": 482.1365696992634,
      "latitude_deg": -2.7698711104407456e-05,
      "longitude_deg": -100.17511449192143,
      "height_km": 483.15416496579076,
      "semi_major_axis_km": 6861.211497310946,
      "eccentricity": 0.0001367,
      "inclination_deg": 42.9994,
      "raan_deg": 162.1559,
      "arg_perigee_deg": 251.142,
      "mean_anomaly_deg": 108.9283,
      "mean_motion_rev_day": 15.27571517
    },
    {
      "epoch": "2026-03-30T06:33:04.136256Z",
      "apogee_km": 483.9620885251725,
      "perigee_km": 482.1751561328938,
      "latitude_deg": 5.405178344368124e-06,
      "longitude_deg": -124.14739985805949,
      "height_km": 483.15871470157117,
      "semi_major_axis_km": 6861.205622329033,
      "eccentricity": 0.00013022,
      "inclination_deg": 42.9994,
      "raan_deg": 161.7869,
      "arg_perigee_deg": 249.4483,
      "mean_anomaly_deg": 110.6229,
      "mean_motion_rev_day": 15.27573479
    },
    {
      "epoch": "2026-03-30T14:23:50.975520Z",
      "apogee_km": 483.88720302713864,
      "perigee_km": 482.2100548120061,
      "latitude_deg": 2.5571481417925113e-05,
      "longitude_deg": 115.9898205180482,
      "height_km": 482.85327936627544,
      "semi_major_axis_km": 6861.185628919572,
      "eccentricity": 0.00012222,
      "inclination_deg": 43.0001,
      "raan_deg": 159.9415,
      "arg_perigee_deg": 268.0801,
      "mean_anomaly_deg": 91.9911,
      "mean_motion_rev_day": 15.27580156
    },
    {
      "epoch": "2026-03-31T10:47:53.603808Z",
      "apogee_km": 483.75909138822135,
      "perigee_km": 482.3823214498516,
      "latitude_deg": -5.599583290661019e-06,
      "longitude_deg": 164.33980895655668,
      "height_km": 483.01382900032064,
      "semi_major_axis_km": 6861.207706419036,
      "eccentricity": 0.00010033,
      "inclination_deg": 42.9999,
      "raan_deg": 155.1403,
      "arg_perigee_deg": 255.9756,
      "mean_anomaly_deg": 104.0984,
      "mean_motion_rev_day": 15.27572783
    },
    {
      "epoch": "2026-04-01T11:54:23.117760Z",
      "apogee_km": 483.7034319288159,
      "perigee_km": 482.35727089446846,
      "latitude_deg": -1.0602678000127135e-05,
      "longitude_deg": 140.77737314098542,
      "height_km": 482.89354415079475,
      "semi_major_axis_km": 6861.167351411642,
      "eccentricity": 9.81e-05,
      "inclination_deg": 43.001,
      "raan_deg": 149.232,
      "arg_perigee_deg": 262.5942,
      "mean_anomaly_deg": 97.4798,
      "mean_motion_rev_day": 15.2758626
    },
    {
      "epoch": "2026-04-02T13:00:54.894528Z",
      "apogee_km": 483.7440236644188,
      "perigee_km": 482.3757637798726,
      "latitude_deg": 4.325671041200564e-05,
      "longitude_deg": 117.20474550068063,
      "height_km": 483.12873260855366,
      "semi_major_axis_km": 6861.196893722145,
      "eccentricity": 9.971e-05,
      "inclination_deg": 42.9996,
      "raan_deg": 143.3229,
      "arg_perigee_deg": 244.6732,
      "mean_anomaly_deg": 115.4017,
      "mean_motion_rev_day": 15.27576394
    },
    {
      "epoch": "2026-04-03T09:24:54.593856Z",
      "apogee_km": 483.6700672440156,
      "perigee_km": 482.20797194424085,
      "latitude_deg": 7.737289003483302e-06,
      "longitude_deg": 165.5659659112209,
      "height_km": 483.0353886380672,
      "semi_major_axis_km": 6861.076019594128,
      "eccentricity": 0.00010655,
      "inclination_deg": 42.9978,
      "raan_deg": 138.5207,
      "arg_perigee_deg": 244.0112,
      "mean_anomaly_deg": 116.063,
      "mean_motion_rev_day": 15.27616762
    },
    {
      "epoch": "2026-04-04T08:57:14.012640Z",
      "apogee_km": 483.316739270771,
      "perigee_km": 482.5579044507731,
      "latitude_deg": 6.9196453328125785e-06,
      "longitude_deg": 165.98125185257047,
      "height_km": 482.91410350501764,
      "semi_major_axis_km": 6861.074321860771,
      "eccentricity": 5.53e-05,
      "inclination_deg": 43.0002,
      "raan_deg": 132.9836,
      "arg_perigee_deg": 238.0249,
      "mean_anomaly_deg": 122.0549,
      "mean_motion_rev_day": 15.27617329
    },
    {
      "epoch": "2026-04-05T08:29:36.904704Z",
      "apogee_km": 483.93670353353355,
      "perigee_km": 482.30880104470543,
      "latitude_deg": -4.859335393314361e-06,
      "longitude_deg": 166.3798136525565,
      "height_km": 482.8335044625389,
      "semi_major_axis_km": 6861.259752289119,
      "eccentricity": 0.00011863,
      "inclination_deg": 42.9996,
      "raan_deg": 127.4443,
      "arg_perigee_deg": 274.6322,
      "mean_anomaly_deg": 85.4394,
      "mean_motion_rev_day": 15.27555402
    },
    {
      "epoch": "2026-04-06T03:19:30.914400Z",
      "apogee_km": 484.17245752228155,
      "perigee_km": 482.0553499434254,
      "latitude_deg": -4.3375752937533154e-05,
      "longitude_deg": -121.295458497213,
      "height_km": 482.5260490170747,
      "semi_major_axis_km": 6861.250903732853,
      "eccentricity": 0.00015428,
      "inclination_deg": 43.0038,
      "raan_deg": 123.0175,
      "arg_perigee_deg": 290.1747,
      "mean_anomaly_deg": 69.8938,
      "mean_motion_rev_day": 15.27558357
    },
    {
      "epoch": "2026-04-07T10:42:38.444256Z",
      "apogee_km": 483.8580340463941,
      "perigee_km": 482.12971517907954,
      "latitude_deg": -3.199286097752679e-05,
      "longitude_deg": 119.2459221900145,
      "height_km": 482.72892137747743,
      "semi_major_axis_km": 6861.130874612737,
      "eccentricity": 0.00012595,
      "inclination_deg": 43.002,
      "raan_deg": 115.6292,
      "arg_perigee_deg": 272.7703,
      "mean_anomaly_deg": 87.3004,
      "mean_motion_rev_day": 15.27598442
    },
    {
      "epoch": "2026-04-08T07:06:39.877632Z",
      "apogee_km": 483.87109805026284,
      "perigee_km": 482.1403061922256,
      "latitude_deg": -1.3282946389868954e-05,
      "longitude_deg": 167.6013526211797,
      "height_km": 482.8129340447656,
      "semi_major_axis_km": 6861.142702121244,
      "eccentricity": 0.00012613,
      "inclination_deg": 43.002,
      "raan_deg": 110.8284,
      "arg_perigee_deg": 267.985,
      "mean_anomaly_deg": 92.0857,
      "mean_motion_rev_day": 15.27594492
    },
    {
      "epoch": "2026-04-09T01:56:32.221536Z",
      "apogee_km": 483.8385001613515,
      "perigee_km": 482.21226745314107,
      "latitude_deg": 6.104119902586461e-05,
      "longitude_deg": -120.07184030603511,
      "height_km": 482.949674828843,
      "semi_major_axis_km": 6861.1623838072455,
      "eccentricity": 0.00011851,
      "inclination_deg": 43.0018,
      "raan_deg": 106.3966,
      "arg_perigee_deg": 259.5404,
      "mean_anomaly_deg": 100.5315,
      "mean_motion_rev_day": 15.27587919
    },
    {
      "epoch": "2026-04-10T01:28:52.965696Z",
      "apogee_km": 483.8946760536801,
      "perigee_km": 482.1873405180986,
      "latitude_deg": 2.615838130066411e-05,
      "longitude_deg": -119.66313063072556,
      "height_km": 482.8925444203831,
      "semi_major_axis_km": 6861.1780082858895,
      "eccentricity": 0.00012442,
      "inclination_deg": 43.0022,
      "raan_deg": 100.8585,
      "arg_perigee_deg": 264.9774,
      "mean_anomaly_deg": 95.0936,
      "mean_motion_rev_day": 15.27582701
    },
    {
      "epoch": "2026-04-11T16:42:47.947392Z",
      "apogee_km": 483.8952058037503,
      "perigee_km": 482.2169579759202,
      "latitude_deg": 1.5980556158392875e-05,
      "longitude_deg": 1.014466294624768,
      "height_km": 482.8823260632446,
      "semi_major_axis_km": 6861.193081889835,
      "eccentricity": 0.0001223,
      "inclination_deg": 43.0042,
      "raan_deg": 91.6264,
      "arg_perigee_deg": 266.6364,
      "mean_anomaly_deg": 93.4348,
      "mean_motion_rev_day": 15.27577667
    },
    {
      "epoch": "2026-04-12T16:15:08.434080Z",
      "apogee_km": 484.31341946906196,
      "perigee_km": 481.8003013818652,
      "latitude_deg": -5.813827912817329e-05,
      "longitude_deg": 1.4232118827838294,
      "height_km": 482.82685160452604,
      "semi_major_axis_km": 6861.193860425463,
      "eccentricity": 0.00018314,
      "inclination_deg": 43.0071,
      "raan_deg": 86.0873,
      "arg_perigee_deg": 270.3581,
      "mean_anomaly_deg": 89.706,
      "mean_motion_rev_day": 15.27577407
    },
    {
      "epoch": "2026-04-14T21:36:27.876096Z",
      "apogee_km": 484.15214625473436,
      "perigee_km": 481.9771453330186,
      "latitude_deg": 2.960029355444462e-05,
      "longitude_deg": -93.65232962635834,
      "height_km": 482.70044034801424,
      "semi_major_axis_km": 6861.201645793876,
      "eccentricity": 0.0001585,
      "inclination_deg": 43.0052,
      "raan_deg": 73.5339,
      "arg_perigee_deg": 277.4839,
      "mean_anomaly_deg": 82.5833,
      "mean_motion_rev_day": 15.27574807
    }
  ]
}